IDEFIX & ARIANE 42P R/B 
1 27422U 02021B   24008.43192335  .00000365  00000+0  15847-3 0  9997
2 27422  98.5135 309.4924 0012237   3.1162 357.0095 14.29915579130891
AQUA                    
1 27424U 02022A   24008.82968247  .00001184  00000+0  26376-3 0  9995
2 27424  98.3122 317.8583 0000559  84.6545 328.2848 14.58731203153336
CZ-4B R/B               
1 27432U 02024C   24008.57942470  .00000064  00000+0  56549-4 0  9990
2 27432  98.9994  49.9453 0051278 105.4453  12.1104 14.14271526117402
MIDORI II (ADEOS-II)    
1 27597U 02056A   24008.47138192  .00000385  00000+0  17261-3 0  9997
2 27597  98.6740 316.0101 0001706 111.6937 248.4425 14.28148092 97318
H-2A R/B                
1 27601U 02056E   24008.60907313  .00000506  00000+0  19567-3 0  9993
2 27601  98.2124 353.8271 0071634   1.4565 115.8486 14.32597412100793
CZ-4B R/B               
1 28059U 03049C   24008.80533386  .00000453  00000+0  11864-3 0  9994
2 28059  98.5891 326.8997 0050331 124.8049 235.7897 14.53489004 71625
CZ-2C R/B               
1 28222U 04012C   24008.60724297  .00008813  00000+0  38604-3 0  9997
2 28222  97.8081  15.0347 0035480 248.3333 111.4122 15.21701792 82666
SL-16 R/B               
1 28353U 04021B   24008.55277108  .00000338  00000+0  20134-3 0  9993
2 28353  71.0010  92.4750 0004937 184.9153 175.1921 14.14372024 10963
CZ-4B R/B               
1 28415U 04035C   24008.58034253  .00005524  00000+0  30687-3 0  9998
2 28415  97.4458  45.9122 0043813 218.2200 141.5924 15.13293946 59650
CZ-2C R/B               
1 28480U 04046B   24008.51042025  .00000417  00000+0  17237-3 0  9993
2 28480  98.1425 323.6989 0140553 335.0735  24.3702 14.26206263995684
ARIANE 5 R/B            
1 28499U 04049H   24008.32969693  .00000827  00000+0  10463-3 0  9993
2 28499  98.1599 142.8978 0089814  33.8458 326.8441 14.81943614 28442
CZ-2D R/B               
1 28738U 05024B   24008.52790987  .00008434  00000+0  37261-3 0  9990
2 28738  97.3601   9.9734 0009663   3.0771 357.0522 15.21927642 18192
SUZAKU (ASTRO-EII)      
1 28773U 05025A   24008.53486889  .00020457  00000+0  55905-3 0  9998
2 28773  31.3886 141.5247 0003462  70.5196 289.5831 15.36180820 22199
ALOS (DAICHI)           
1 28931U 06002A   24008.82714682  .00001460  00000+0  28149-3 0  9990
2 28931  98.0168 325.6202 0000934  42.5620 317.5656 14.64955617957868
H-2A R/B                
1 28932U 06002B   24008.80276353  .00003668  00000+0  29143-3 0  9994
2 28932  98.2220  91.6968 0079123  13.4037 346.9261 14.98709288975398
RESURS-DK 1             
1 29228U 06021A   24008.69042917  .00002611  00000+0  18510-3 0  9991
2 29228  69.9357 113.0066 0007678 268.4233  91.6050 15.06096471968178
GENESIS 1               
1 29252U 06029A   24008.34629489  .00012446  00000+0  40490-3 0  9992
2 29252  64.5188 346.2527 0004692 317.9115  42.1654 15.32187149965891
CZ-4B R/B               
1 29507U 06046C   24008.57238971  .00003840  00000+0  26349-3 0  9996
2 29507  97.6658  45.6004 0043231 103.5527 257.0521 15.05842552940531
CZ-2C R/B               
1 31114U 07010B   24008.36032073  .00000136  00000+0  81811-4 0  9998
2 31114  98.3055 154.0692 0060600  77.0952 283.6985 14.19687464867418
COSMO-SKYMED 1          
1 31598U 07023A   24008.73100759  .00000602  00000+0  82234-4 0  9994
2 31598  97.8855 194.2409 0001186  95.3274 264.8075 14.82144588897433
GENESIS 2               
1 31789U 07028A   24008.42455649  .00011746  00000+0  38949-3 0  9992
2 31789  64.4930  30.9131 0040777 235.4673 124.2604 15.30828138912761
COSMOS 2428             
1 31792U 07029A   24008.60844455  .00000376  00000+0  22827-3 0  9999
2 31792  70.9429  63.6515 0012308 270.5329  89.4382 14.12659479852448
SL-16 R/B               
1 31793U 07029B   24008.52075343 -.00000227  00000+0 -93332-4 0  9990
2 31793  70.9752  35.1781 0002197 266.1628 245.6067 14.14581946853470
KORONAS-FOTON           
1 33504U 09003A   24008.48015353  .00006379  00000+0  26630-3 0  9994
2 33504  82.4379   5.0462 0018661  86.8837 273.4534 15.23302472824538
CZ-2C R/B               
1 37731U 11030B   24008.53340443  .00001763  00000+0  25119-3 0  9993
2 37731  97.7422 338.5728 0058208  42.4124  72.9845 14.76854898673135
H-2A R/B                
1 38341U 12025E   24008.62256447  .00002665  00000+0  29512-3 0  9999
2 38341  98.4350 270.1430 0052391   9.6784 350.5426 14.87304702630315
CUSAT 2 & FALCON 9 R/B  
1 39271U 13055G   24008.15255371  .00036632 -67886-6  53143-3 0  9990
2 39271  80.9430 270.8747 0374892 119.1013 244.8293 15.02902720541046
SHIJIAN-16 (SJ-16)      
1 39358U 13057A   24008.80046516  .00000947  00000+0  10598-3 0  9993
2 39358  74.9719 237.6945 0019163 226.2844 133.6756 14.88001555553754
CZ-2C R/B               
1 39364U 13059B   24008.59953182  .00043717  00000+0  57851-3 0  9999
2 39364  97.0737  57.0949 0025181  61.8304 298.5491 15.57809450567991
SL-4 R/B                
1 39679U 14021B   24008.73248055  .00010077  00000+0  40522-3 0  9990
2 39679  51.6099 166.9321 0145331 151.5148 209.3867 15.16329033535715
ALOS-2                  
1 39766U 14029A   24008.82034944  .00002321  00000+0  31752-3 0  9993
2 39766  97.9219 107.7724 0001432 101.3315 258.8058 14.79475365519969
SL-27 R/B               
1 40354U 14084B   24008.80022695  .00024387  00000+0  27783-3 0  9992
2 40354  74.7278 196.0543 0022749  88.7741 271.6088 15.61811336509405
YAOGAN-29               
1 41038U 15069A   24008.77976423  .00000599  00000+0  83390-4 0  9995
2 41038  98.0608  22.2296 0003047  61.0306 299.1211 14.81433424438714
ASTRO-H (HITOMI)        
1 41337U 16012A   24008.49331204  .00002965  00000+0  21177-3 0  9990
2 41337  31.0045  34.1179 0011114 336.1762  23.8358 15.02455105432820
HXMT (HUIYAN)           
1 42758U 17034A   24008.69286518  .00006883  00000+0  37392-3 0  9991
2 42758  43.0159  83.7225 0003545 258.2071 101.8378 15.14989462362502
CZ-2C R/B               
1 43521U 18054D   24008.43493188  .00008551  00000+0  33572-3 0  9998
2 43521  35.1520  49.6965 0063613 121.5566 239.1383 15.23101142306308
SAOCOM 1A               
1 43641U 18076A   24008.73938622  .00000619  00000+0  84380-4 0  9996
2 43641  97.8848 197.2700 0001589  90.1255 270.0140 14.82145815284204
H-2A R/B                
1 43682U 18084L   24008.52750319  .00006595  00000+0  38388-3 0  9997
2 43682  98.8707  70.1906 0047736 183.3726 176.7186 15.11504513285203
SAOCOM 1B               
1 46265U 20059A   24008.77061899  .00000658  00000+0  89209-4 0  9990
2 46265  97.8853 196.3865 0001306  89.2298 270.9065 14.82161519181604
CSS (TIANHE)            
1 48274U 21035A   24008.37464983  .00030461  00000+0  33632-3 0  9997
2 48274  41.4701 345.5007 0004950  52.7405 307.3885 15.62385373153926
COSMOS 2550             
1 48865U 21056A   24008.81033257  .00006629  00000+0  20710-3 0  9993
2 48865  67.1435 273.5056 0008305 269.5305  90.4898 15.33834689142187
2022-019U               
1 51842U 22019U   24008.79182467  .00036902  00000+0  68219-3 0  9990
2 51842  97.5191 106.4326 0040132 324.3769  35.4803 15.48059781104118
CZ-2C R/B               
1 52794U 22058K   24007.85529395  .00006723  00000+0  30122-3 0  9991
2 52794  50.1734 310.2738 0087625 200.5051 159.2379 15.18996308 88567
CZ-2C R/B               
1 53131U 22082D   24008.61725582  .00060323  00000+0  53834-3 0  9996
2 53131  97.3291  34.6863 0022136 191.0384 169.0394 15.67917588 83747
XRISM                   
1 57800U 23137A   24008.27259502  .00004406  00000+0  34694-3 0  9994
2 57800  31.0050 315.2310 0009658  53.7151 306.4375 14.99160060 18425
